[{"OBJECT_NAME":"STARLINK-31053","OBJECT_ID":"2023-192U","EPOCH":"2026-03-09T09:03:19.850976","MEAN_MOTION":15.3019163,"ECCENTRICITY":0.00014658,"INCLINATION":53.1606,"RA_OF_ASC_NODE":64.4627,"ARG_OF_PERICENTER":95.422,"MEAN_ANOMALY":264.6948,"EPHEMERIS_TYPE":0,"CLASSIFICATION_TYPE":"U","NORAD_CAT_ID":58549,"ELEMENT_SET_NO":999,"REV_AT_EPOCH":12593,"BSTAR":9.383993e-6,"MEAN_MOTION_DOT":-8.1e-7,"MEAN_MOTION_DDOT":0},{"OBJECT_NAME":"TSAT-1A","OBJECT_ID":"2024-066A","EPOCH":"2026-03-09T22:56:57.116832","MEAN_MOTION":15.33219384,"ECCENTRICITY":0.00111833,"INCLINATION":45.6179,"RA_OF_ASC_NODE":302.0275,"ARG_OF_PERICENTER":264.5913,"MEAN_ANOMALY":95.3706,"EPHEMERIS_TYPE":0,"CLASSIFICATION_TYPE":"U","NORAD_CAT_ID":59442,"ELEMENT_SET_NO":999,"REV_AT_EPOCH":10653,"BSTAR":0.00047082724,"MEAN_MOTION_DOT":0.00015138,"MEAN_MOTION_DDOT":0}]
